[{"OBJECT_NAME":"STARLINK-31652","OBJECT_ID":"2024-050C","EPOCH":"2026-03-09T13:59:37.490784","MEAN_MOTION":15.30210485,"ECCENTRICITY":0.0001429,"INCLINATION":53.1594,"RA_OF_ASC_NODE":181.3932,"ARG_OF_PERICENTER":101.9598,"MEAN_ANOMALY":258.1563,"EPHEMERIS_TYPE":0,"CLASSIFICATION_TYPE":"U","NORAD_CAT_ID":59256,"ELEMENT_SET_NO":999,"REV_AT_EPOCH":11053,"BSTAR":-1.7742e-5,"MEAN_MOTION_DOT":-8.85e-6,"MEAN_MOTION_DDOT":0},{"OBJECT_NAME":"GEOSCAN 2 (RS92S2)","OBJECT_ID":"2025-155Q","EPOCH":"2026-03-09T23:01:48.939744","MEAN_MOTION":15.28709337,"ECCENTRICITY":0.00085277,"INCLINATION":97.4463,"RA_OF_ASC_NODE":37.5259,"ARG_OF_PERICENTER":140.9505,"MEAN_ANOMALY":219.2352,"EPHEMERIS_TYPE":0,"CLASSIFICATION_TYPE":"U","NORAD_CAT_ID":64890,"ELEMENT_SET_NO":999,"REV_AT_EPOCH":6561,"BSTAR":0.00051551761,"MEAN_MOTION_DOT":0.00014341,"MEAN_MOTION_DDOT":0}]
